{"type": "FeatureCollection", "features": [ {"type": "Feature", "properties": {"norad_id": 30386, "name": "FENGYUN 1C DEB", "group": "fengyun-1c-debris", "lat": 19.988773832334857, "lon": -116.74744449686176, "alt_km": 1167.7454642830644, "timestamp": "2025-12-17T17:50:19.526835+00:00", "meta": {"OBJECT_NAME": "FENGYUN 1C DEB", "OBJECT_ID": "1999-025ACZ", "EPOCH": "2025-12-17T04:20:59.744256", "MEAN_MOTION": 13.55584859, "ECCENTRICITY": 0.03038846, "INCLINATION": 98.6912, "RA_OF_ASC_NODE": 245.9458, "ARG_OF_PERICENTER": 144.193, "MEAN_ANOMALY": 17.7836, "EPHEMERIS_TYPE": 0, "CLASSIFICATION_TYPE": "U", "NORAD_CAT_ID": 30386, "ELEMENT_SET_NO": 999, "REV_AT_EPOCH": 92889, "BSTAR": 0.0014990669, "MEAN_MOTION_DOT": 1.367e-05, "MEAN_MOTION_DDOT": 0}, "tle": {"line1": "1 30386U 99025ACZ 25351.18124704  .00001367  00000+0  14991-2 0  9990", "line2": "2 30386  98.6912 245.9458 0303884 144.1930  17.7836 13.55584859928893"}}, "geometry": {"type": "Point", "coordinates": [-116.74744449686176, 19.988773832334857]}}, {"type": "Feature", "properties": {"norad_id": 30387, "name": "FENGYUN 1C DEB", "group": "fengyun-1c-debris", "lat": 64.74254505633716, "lon": -154.49859514993798, "alt_km": 834.9679244017589, "timestamp": "2025-12-17T17:50:19.526845+00:00", "meta": {"OBJECT_NAME": "FENGYUN 1C DEB", "OBJECT_ID": "1999-025ADA", "EPOCH": "2025-12-17T07:26:03.257952", "MEAN_MOTION": 14.1505732, "ECCENTRICITY": 0.00011837, "INCLINATION": 98.6562, "RA_OF_ASC_NODE": 6.2431, "ARG_OF_PERICENTER": 94.5898, "MEAN_ANOMALY": 331.972, "EPHEMERIS_TYPE": 0, "CLASSIFICATION_TYPE": "U", "NORAD_CAT_ID": 30387, "ELEMENT_SET_NO": 999, "REV_AT_EPOCH": 97389, "BSTAR": 0.00024092673, "MEAN_MOTION_DOT": 4.24e-06, "MEAN_MOTION_DDOT": 0}, "tle": {"line1": "1 30387U 99025ADA 25351.30975993  .00000424  00000+0  24093-3 0  9997", "line2": "2 30387  98.6562   6.2431 0001183  94.5898 331.9720 14.15057320973890"}}, "geometry": {"type": "Point", "coordinates": [-154.49859514993798, 64.74254505633716]}}, {"type": "Feature", "properties": {"norad_id": 30388, "name": "FENGYUN 1C DEB", "group": "fengyun-1c-debris", "lat": 63.63613302553477, "lon": -149.95292945070904, "alt_km": 753.3554691746613, "timestamp": "2025-12-17T17:50:19.526855+00:00", "meta": {"OBJECT_NAME": "FENGYUN 1C DEB", "OBJECT_ID": "1999-025ADB", "EPOCH": "2025-12-17T07:14:18.232224", "MEAN_MOTION": 14.19780213, "ECCENTRICITY": 0.02219397, "INCLINATION": 98.599, "RA_OF_ASC_NODE": 11.8412, "ARG_OF_PERICENTER": 49.6573, "MEAN_ANOMALY": 326.7441, "EPHEMERIS_TYPE": 0, "CLASSIFICATION_TYPE": "U", "NORAD_CAT_ID": 30388, "ELEMENT_SET_NO": 999, "REV_AT_EPOCH": 97497, "BSTAR": 0.00040218576, "MEAN_MOTION_DOT": 1.045e-05, "MEAN_MOTION_DDOT": 0}, "tle": {"line1": "1 30388U 99025ADB 25351.30159991  .00001045  00000+0  40219-3 0  9998", "line2": "2 30388  98.5990  11.8412 0221939  49.6573 326.7441 14.19780213974970"}}, "geometry": {"type": "Point", "coordinates": [-149.95292945070904, 63.63613302553477]}}, {"type": "Feature", "properties": {"norad_id": 30389, "name": "FENGYUN 1C DEB", "group": "fengyun-1c-debris", "lat": -54.756273171009205, "lon": -119.54670683184048, "alt_km": 742.7933235563742, "timestamp": "2025-12-17T17:50:19.526865+00:00", "meta": {"OBJECT_NAME": "FENGYUN 1C DEB", "OBJECT_ID": "1999-025ADC", "EPOCH": "2025-12-17T05:23:30.395904", "MEAN_MOTION": 14.44126027, "ECCENTRICITY": 0.00144971, "INCLINATION": 98.8388, "RA_OF_ASC_NODE": 72.6369, "ARG_OF_PERICENTER": 208.7286, "MEAN_ANOMALY": 212.1542, "EPHEMERIS_TYPE": 0, "CLASSIFICATION_TYPE": "U", "NORAD_CAT_ID": 30389, "ELEMENT_SET_NO": 999, "REV_AT_EPOCH": 97851, "BSTAR": 0.0018127943, "MEAN_MOTION_DOT": 6.177e-05, "MEAN_MOTION_DDOT": 0}, "tle": {"line1": "1 30389U 99025ADC 25351.22465736  .00006177  00000+0  18128-2 0  9991", "line2": "2 30389  98.8388  72.6369 0014497 208.7286 212.1542 14.44126027978518"}}, "geometry": {"type": "Point", "coordinates": [-119.54670683184048, -54.756273171009205]}}, {"type": "Feature", "properties": {"norad_id": 30390, "name": "FENGYUN 1C DEB", "group": "fengyun-1c-debris", "lat": -0.3736761150208875, "lon": -105.04265279886515, "alt_km": 753.1380728651484, "timestamp": "2025-12-17T17:50:19.526875+00:00", "meta": {"OBJECT_NAME": "FENGYUN 1C DEB", "OBJECT_ID": "1999-025ADD", "EPOCH": "2025-12-17T05:33:14.404608", "MEAN_MOTION": 14.29772186, "ECCENTRICITY": 0.00680547, "INCLINATION": 98.8234, "RA_OF_ASC_NODE": 74.4969, "ARG_OF_PERICENTER": 151.6677, "MEAN_ANOMALY": 275.0322, "EPHEMERIS_TYPE": 0, "CLASSIFICATION_TYPE": "U", "NORAD_CAT_ID": 30390, "ELEMENT_SET_NO": 999, "REV_AT_EPOCH": 97448, "BSTAR": 0.0013340344, "MEAN_MOTION_DOT": 3.469e-05, "MEAN_MOTION_DDOT": 0}, "tle": {"line1": "1 30390U 99025ADD 25351.23141672  .00003469  00000+0  13340-2 0  9996", "line2": "2 30390  98.8234  74.4969 0068054 151.6677 275.0322 14.29772186974486"}}, "geometry": {"type": "Point", "coordinates": [-105.04265279886515, -0.3736761150208875]}}, {"type": "Feature", "properties": {"norad_id": 30391, "name": "FENGYUN 1C DEB", "group": "fengyun-1c-debris", "lat": -30.039554945561267, "lon": -147.44990848062986, "alt_km": 802.6966391181822, "timestamp": "2025-12-17T17:50:19.526886+00:00", "meta": {"OBJECT_NAME": "FENGYUN 1C DEB", "OBJECT_ID": "1999-025ADE", "EPOCH": "2025-12-17T01:52:35.588352", "MEAN_MOTION": 14.16257011, "ECCENTRICITY": 0.00716225, "INCLINATION": 98.7808, "RA_OF_ASC_NODE": 37.0222, "ARG_OF_PERICENTER": 249.5849, "MEAN_ANOMALY": 172.1473, "EPHEMERIS_TYPE": 0, "CLASSIFICATION_TYPE": "U", "NORAD_CAT_ID": 30391, "ELEMENT_SET_NO": 999, "REV_AT_EPOCH": 96940, "BSTAR": 0.00097144564, "MEAN_MOTION_DOT": 1.93e-05, "MEAN_MOTION_DDOT": 0}, "tle": {"line1": "1 30391U 99025ADE 25351.07818968  .00001930  00000+0  97145-3 0  9995", "line2": "2 30391  98.7808  37.0222 0071622 249.5849 172.1473 14.16257011969404"}}, "geometry": {"type": "Point", "coordinates": [-147.44990848062986, -30.039554945561267]}}, {"type": "Feature", "properties": {"norad_id": 30392, "name": "FENGYUN 1C DEB", "group": "fengyun-1c-debris", "lat": 43.95480196719882, "lon": 1.6179264976371017, "alt_km": 800.7997073529859, "timestamp": "2025-12-17T17:50:19.526896+00:00", "meta": {"OBJECT_NAME": "FENGYUN 1C DEB", "OBJECT_ID": "1999-025ADF", "EPOCH": "2025-12-17T07:29:33.974592", "MEAN_MOTION": 14.07463753, "ECCENTRICITY": 0.0180777, "INCLINATION": 98.7853, "RA_OF_ASC_NODE": 9.7734, "ARG_OF_PERICENTER": 343.9882, "MEAN_ANOMALY": 35.8623, "EPHEMERIS_TYPE": 0, "CLASSIFICATION_TYPE": "U", "NORAD_CAT_ID": 30392, "ELEMENT_SET_NO": 999, "REV_AT_EPOCH": 96735, "BSTAR": 0.00052597812, "MEAN_MOTION_DOT": 9.84e-06, "MEAN_MOTION_DDOT": 0}, "tle": {"line1": "1 30392U 99025ADF 25351.31219878  .00000984  00000+0  52598-3 0  9999", "line2": "2 30392  98.7853   9.7734 0180777 343.9882  35.8623 14.07463753967353"}}, "geometry": {"type": "Point", "coordinates": [1.6179264976371017, 43.95480196719882]}}, {"type": "Feature", "properties": {"norad_id": 30393, "name": "FENGYUN 1C DEB", "group": "fengyun-1c-debris", "lat": -15.571499373408585, "lon": 52.107602591514244, "alt_km": 908.7948712311654, "timestamp": "2025-12-17T17:50:19.526906+00:00", "meta": {"OBJECT_NAME": "FENGYUN 1C DEB", "OBJECT_ID": "1999-025ADG", "EPOCH": "2025-12-17T02:33:24.340608", "MEAN_MOTION": 13.98988243, "ECCENTRICITY": 0.00696416, "INCLINATION": 99.1647, "RA_OF_ASC_NODE": 48.8926, "ARG_OF_PERICENTER": 247.9372, "MEAN_ANOMALY": 130.4556, "EPHEMERIS_TYPE": 0, "CLASSIFICATION_TYPE": "U", "NORAD_CAT_ID": 30393, "ELEMENT_SET_NO": 999, "REV_AT_EPOCH": 96391, "BSTAR": 0.00028249092, "MEAN_MOTION_DOT": 3.71e-06, "MEAN_MOTION_DDOT": 0}, "tle": {"line1": "1 30393U 99025ADG 25351.10653172  .00000371  00000+0  28249-3 0  9992", "line2": "2 30393  99.1647  48.8926 0069641 247.9372 130.4556 13.98988243963910"}}, "geometry": {"type": "Point", "coordinates": [52.107602591514244, -15.571499373408585]}}, {"type": "Feature", "properties": {"norad_id": 30394, "name": "FENGYUN 1C DEB", "group": "fengyun-1c-debris", "lat": -73.22185683318924, "lon": 166.65590173220542, "alt_km": 979.6638562178068, "timestamp": "2025-12-17T17:50:19.526917+00:00", "meta": {"OBJECT_NAME": "FENGYUN 1C DEB", "OBJECT_ID": "1999-025ADH", "EPOCH": "2025-12-17T08:05:46.578624", "MEAN_MOTION": 13.95790065, "ECCENTRICITY": 0.0089802, "INCLINATION": 99.4347, "RA_OF_ASC_NODE": 19.7096, "ARG_OF_PERICENTER": 89.1139, "MEAN_ANOMALY": 288.0355, "EPHEMERIS_TYPE": 0, "CLASSIFICATION_TYPE": "U", "NORAD_CAT_ID": 30394, "ELEMENT_SET_NO": 999, "REV_AT_EPOCH": 96168, "BSTAR": 8.8505315e-05, "MEAN_MOTION_DOT": 7.9e-07, "MEAN_MOTION_DDOT": 0}, "tle": {"line1": "1 30394U 99025ADH 25351.33734466  .00000079  00000+0  88505-4 0  9991", "line2": "2 30394  99.4347  19.7096 0089802  89.1139 288.0355 13.95790065961683"}}, "geometry": {"type": "Point", "coordinates": [166.65590173220542, -73.22185683318924]}}, {"type": "Feature", "properties": {"norad_id": 30395, "name": "FENGYUN 1C DEB", "group": "fengyun-1c-debris", "lat": 62.38905577419938, "lon": -10.334854291257171, "alt_km": 825.2764176068522, "timestamp": "2025-12-17T17:50:19.526927+00:00", "meta": {"OBJECT_NAME": "FENGYUN 1C DEB", "OBJECT_ID": "1999-025ADJ", "EPOCH": "2025-12-17T00:36:15.258240", "MEAN_MOTION": 13.96697368, "ECCENTRICITY": 0.0160144, "INCLINATION": 98.9302, "RA_OF_ASC_NODE": 6.4627, "ARG_OF_PERICENTER": 14.3516, "MEAN_ANOMALY": 39.304, "EPHEMERIS_TYPE": 0, "CLASSIFICATION_TYPE": "U", "NORAD_CAT_ID": 30395, "ELEMENT_SET_NO": 999, "REV_AT_EPOCH": 96083, "BSTAR": 0.00035616905, "MEAN_MOTION_DOT": 5.08e-06, "MEAN_MOTION_DDOT": 0}, "tle": {"line1": "1 30395U 99025ADJ 25351.02517660  .00000508  00000+0  35617-3 0  9995", "line2": "2 30395  98.9302   6.4627 0160144  14.3516  39.3040 13.96697368960837"}}, "geometry": {"type": "Point", "coordinates": [-10.334854291257171, 62.38905577419938]}}]}